{
    "links": {
        "self": "http://www.neowsapp.com/rest/v1/neo/54016500?api_key=iIulBulltgU6a56xZRHN4H3l9WmuAYTsLGpBGhQ2"
    },
    "id": "54016500",
    "neo_reference_id": "54016500",
    "name": "(2020 GJ2)",
    "designation": "2020 GJ2",
    "nasa_jpl_url": "http://ssd.jpl.nasa.gov/sbdb.cgi?sstr=54016500",
    "absolute_magnitude_h": 24.747,
    "estimated_diameter": {
        "kilometers": {
            "estimated_diameter_min": 0.0298644813,
            "estimated_diameter_max": 0.0667790104
        },
        "meters": {
            "estimated_diameter_min": 29.8644813333,
            "estimated_diameter_max": 66.779010374
        },
        "miles": {
            "estimated_diameter_min": 0.0185569226,
            "estimated_diameter_max": 0.0414945405
        },
        "feet": {
            "estimated_diameter_min": 97.9805849374,
            "estimated_diameter_max": 219.0912483953
        }
    },
    "is_potentially_hazardous_asteroid": false,
    "close_approach_data": [
        {
            "close_approach_date": "2020-04-17",
            "close_approach_date_full": "2020-Apr-17 00:58",
            "epoch_date_close_approach": 1587085080000,
            "relative_velocity": {
                "kilometers_per_second": "8.0230808128",
                "kilometers_per_hour": "28883.0909259078",
                "miles_per_hour": "17946.8294700453"
            },
            "miss_distance": {
                "astronomical": "0.0294615825",
                "lunar": "11.4605555925",
                "kilometers": "4407389.988829275",
                "miles": "2738625.147322995"
            },
            "orbiting_body": "Earth"
        },
        {
            "close_approach_date": "2023-07-22",
            "close_approach_date_full": "2023-Jul-22 21:08",
            "epoch_date_close_approach": 1690060080000,
            "relative_velocity": {
                "kilometers_per_second": "9.5152066919",
                "kilometers_per_hour": "34254.7440908062",
                "miles_per_hour": "21284.5658490901"
            },
            "miss_distance": {
                "astronomical": "1.3458994699",
                "lunar": "523.5548937911",
                "kilometers": "201343693.931169113",
                "miles": "125109170.0195272394"
            },
            "orbiting_body": "Juptr"
        }
    ],
    "orbital_data": {
        "orbit_id": "12",
        "orbit_determination_date": "2020-04-27 07:37:49",
        "first_observation_date": "2020-03-23",
        "last_observation_date": "2020-04-27",
        "data_arc_in_days": 35,
        "observations_used": 190,
        "orbit_uncertainty": "7",
        "minimum_orbit_intersection": ".0289221",
        "jupiter_tisserand_invariant": "2.963",
        "epoch_osculation": "2459000.5",
        "eccentricity": ".6393374202214368",
        "semi_major_axis": "2.850298871206892",
        "inclination": "2.134332423582797",
        "ascending_node_longitude": "181.1524342110006",
        "orbital_period": "1757.656595242774",
        "perihelion_distance": "1.027996144029404",
        "perihelion_argument": "24.23780265875565",
        "aphelion_distance": "4.672601598384379",
        "perihelion_time": "2458955.148433487665",
        "mean_anomaly": "9.28882467066073",
        "mean_motion": ".2048181658319186",
        "equinox": "J2000",
        "orbit_class": {
            "orbit_class_type": "AMO",
            "orbit_class_description": "Near-Earth asteroid orbits similar to that of 1221 Amor",
            "orbit_class_range": "1.017 AU < q (perihelion) < 1.3 AU"
        }
    },
    "is_sentry_object": false
}